ORBCOMM FM33            
1 25983U 99065D   25182.66185260  .00000537  00000+0  21384-3 0  9993
2 25983  45.0291 290.1399 0008740 147.8219 212.3165 14.40022306338224
ORBCOMM FM36            
1 25984U 99065E   25181.95109617  .00000637  00000+0  25481-3 0  9990
2 25984  45.0404  25.6664 0003198  23.4513 336.6481 14.38145987336402
ORBCOMM FM35            
1 25985U 99065F   25182.28825120  .00000625  00000+0  25594-3 0  9994
2 25985  45.0408  29.2137 0004135 103.5569 256.5740 14.37116489336812
ORBCOMM FM34            
1 25986U 99065G   25181.83693750  .00000441  00000+0  19462-3 0  9990
2 25986  45.0405  31.8147 0004343  55.0995 305.0261 14.37137155336861
ORBCOMM FM38            
1 33060U 08031A   25182.44459406  .00000981  00000+0  15146-3 0  9995
2 33060  48.4401 247.3003 0004123 102.7234 257.4142 14.81361955916861
ORBCOMM FM41            
1 33061U 08031B   25182.18627036  .00000933  00000+0  14677-3 0  9998
2 33061  48.4440 256.3586 0003354  82.6696 300.4292 14.80946031916312
ORBCOMM FM29            
1 33062U 08031C   25182.50508454  .00000989  00000+0  15361-3 0  9999
2 33062  48.4393 262.6324 0005031  84.5258 288.8878 14.81050399916277
ORBCOMM FM39            
1 33063U 08031D   25182.54744167  .00000919  00000+0  14949-3 0  9991
2 33063  48.4412 286.8603 0006081  54.2355 305.9124 14.79599404915924
